IRIDIUM 126             
1 42809U 17039G   26200.87008026  .00000058  00000+0  13667-4 0  9993
2 42809  86.3998 339.9825 0002074  93.1561 266.9872 14.34217875474631
IRIDIUM 124             
1 42810U 17039H   26201.19251636  .00000149  00000+0  38429-4 0  9992
2 42810  86.4477 276.5592 0002259  96.8623 263.2835 14.43275430479878
IRIDIUM 128             
1 42811U 17039J   26201.00035837  .00000127  00000+0  38447-4 0  9992
2 42811  86.3971  11.4274 0002297  93.5480 266.5979 14.34218112474680
IRIDIUM 121             
1 42812U 17039K   26200.88910851  .00000033  00000+0  46960-5 0  9992
2 42812  86.3999 340.0025 0002249  93.2688 266.8765 14.34217667474512
IRIDIUM 133             
1 42955U 17061A   26201.17160548  .00000136  00000+0  41520-4 0  9998
2 42955  86.3972  11.4743 0002214  91.6278 268.5172 14.34218439459507
IRIDIUM 100             
1 42956U 17061B   26200.95595862  .00000116  00000+0  34381-4 0  9990
2 42956  86.3970  11.4823 0002219  90.6706 269.4744 14.34218367459476
IRIDIUM 122             
1 42957U 17061C   26200.99401295  .00000121  00000+0  36321-4 0  9993
2 42957  86.3971  11.4668 0002112  91.8626 268.2812 14.34216904459480
IRIDIUM 129             
1 42958U 17061D   26201.22869167  .00000125  00000+0  37750-4 0  9998
2 42958  86.3972  11.4360 0002075  86.0306 274.1127 14.34216312459534
IRIDIUM 119             
1 42959U 17061E   26201.19697850  .00000131  00000+0  39870-4 0  9995
2 42959  86.3973  11.4451 0002106  91.8418 268.3019 14.34218002459544
IRIDIUM 107             
1 42960U 17061F   26201.21600423  .00000010  00000+0 -35433-5 0  9999
2 42960  86.3968  11.4590 0002059  97.6422 262.5007 14.34217234459550
IRIDIUM 132             
1 42961U 17061G   26201.01304265  .00000119  00000+0  35593-4 0  9998
2 42961  86.3972  11.5228 0002182  91.5396 268.6050 14.34217840459520
IRIDIUM 136             
1 42962U 17061H   26200.97498626  .00000119  00000+0  35477-4 0  9999
2 42962  86.3972  11.5456 0002248  90.6283 269.5170 14.34218382459538
IRIDIUM 139             
1 42963U 17061J   26201.19063540  .00000135  00000+0  41121-4 0  9999
2 42963  86.3974  11.5178 0002269  92.2787 267.8669 14.34218423459576
IRIDIUM 125             
1 42964U 17061K   26201.17794861  .00000133  00000+0  40287-4 0  9995
2 42964  86.3975  11.5848 0001723  98.2506 261.8886 14.34218714459580
IRIDIUM 135             
1 43070U 17083A   26201.22184226 -.00000008  00000+0 -99502-5 0  9990
2 43070  86.3985 308.2074 0002110  94.7900 265.3537 14.34217578448887
IRIDIUM 138             
1 43071U 17083B   26201.24721166  .00000152  00000+0  47351-4 0  9995
2 43071  86.4000 307.8969 0002042  94.3379 265.8050 14.34217443448870
